     3.04           N: GNSS NAV DATA    M: Mixed            RINEX VERSION / TYPE
CONVBIN demo5 b34g                      20221018 165606 UTC PGM / RUN BY / DATE 
log: /home/dominic/Bureau/ubx/2022.09.26_222748.ubx         COMMENT             
format: u-blox UBX                                          COMMENT             
format: u-blox UBX                                          COMMENT             
log: /home/dominic/Bureau/ubx/2022.09.26_222748.ubx         COMMENT             
                                                            END OF HEADER       
E27 2022 09 26 22 40 00 -.401481054723D-03 -.893862761586D-11  .000000000000D+00
      .240000000000D+02  .104406250000D+03  .352407536331D-08  .225761023437D+01
      .494532287121D-05  .342653365806D-03  .248849391937D-05  .544061742973D+04
      .168000000000D+06  .838190317154D-07 -.182907125870D+01  .115483999252D-06
      .971416459738D+00  .290093750000D+03 -.101740544736D+01 -.608739642164D-08
      .377158567311D-09  .513000000000D+03  .222900000000D+04  .000000000000D+00
      .312000000000D+01  .000000000000D+00  .279396772385D-08  .302679836750D-08
      .168664000000D+06  .000000000000D+00
E19 2022 09 26 22 40 00 -.442366424249D-02  .102289732240D-09  .000000000000D+00
      .240000000000D+02 -.108687500000D+03  .337156901081D-08 -.129354470537D+01
     -.506639480591D-05  .489832600579D-04  .689737498760D-05  .544061545563D+04
      .168000000000D+06 -.204890966415D-07  .235969893386D+01  .502914190292D-07
      .962873148354D+00  .190281250000D+03 -.312909149634D+01 -.582059959419D-08
     -.531450708484D-09  .513000000000D+03  .222900000000D+04  .000000000000D+00
      .312000000000D+01  .000000000000D+00 -.302679836750D-08 -.302679836750D-08
      .168664000000D+06  .000000000000D+00
E07 2022 09 26 22 40 00 -.708548817784D-03 -.302691205434D-11  .000000000000D+00
      .240000000000D+02 -.110906250000D+03  .345442960514D-08 -.308128432683D+01
     -.519677996635D-05  .174145563506D-03  .643916428089D-05  .544063173103D+04
      .168000000000D+06 -.521540641785D-07  .235726926538D+01 -.298023223877D-07
      .957241207796D+00  .203968750000D+03  .125758781307D+00 -.589453124517D-08
     -.497877881469D-09  .513000000000D+03  .222900000000D+04  .000000000000D+00
      .312000000000D+01  .000000000000D+00  .558793544769D-08  .605359673500D-08
      .168664000000D+06  .000000000000D+00
E01 2022 09 26 22 40 00 -.535717757884D-03 -.736122274247D-11  .000000000000D+00
      .240000000000D+02  .101812500000D+03  .350586031887D-08  .889772904990D+00
      .467710196972D-05  .272981123999D-03  .197067856789D-05  .544060416985D+04
      .168000000000D+06  .242143869400D-07 -.182608311101D+01 -.260770320892D-07
      .971857934767D+00  .302593750000D+03 -.117311408530D+01 -.603810865432D-08
      .337156901081D-09  .513000000000D+03  .222900000000D+04  .000000000000D+00
      .312000000000D+01  .650000000000D+02  .465661287308D-09  .465661287308D-09
      .168664000000D+06  .000000000000D+00
E30 2022 09 26 22 40 00 -.868927338161D-03 -.306670244754D-10  .000000000000D+00
      .240000000000D+02  .107281250000D+03  .347300180732D-08  .197923280825D+01
      .500120222569D-05  .261963694356D-03  .258348882198D-05  .544062403488D+04
      .168000000000D+06 -.102445483208D-06 -.182512691410D+01  .372529029846D-07
      .969317074278D+00  .287625000000D+03  .782795585321D-01 -.598560646739D-08
      .426803492364D-09  .513000000000D+03  .222900000000D+04  .000000000000D+00
      .312000000000D+01  .000000000000D+00  .162981450558D-08  .162981450558D-08
      .168664000000D+06  .000000000000D+00
E11 2022 09 26 22 40 00  .205123901833D-02 -.165542246577D-09 -.173472347598D-17
      .240000000000D+02 -.400000000000D+01  .223437878513D-08  .833735712393D+00
     -.244006514549D-06  .326626002789D-03  .161789357662D-04  .544062128448D+04
      .168000000000D+06  .167638063431D-07  .259159808623D+00  .521540641785D-07
      .995677398074D+00  .900000000000D+01  .144909701881D+01 -.515485757765D-08
      .115361948145D-09  .513000000000D+03  .222900000000D+04  .000000000000D+00
      .312000000000D+01  .000000000000D+00 -.132713466883D-07 -.144354999065D-07
      .168685000000D+06  .000000000000D+00
S36 2022  9 26 22 52  0  .000000000000D+00  .000000000000D+00  .168724000000D+06
      .420036880000D+05  .000000000000D+00  .000000000000D+00  .100000000000D+01
      .367484696000D+04  .000000000000D+00  .000000000000D+00  .819200000000D+04
      .000000000000D+00  .000000000000D+00  .000000000000D+00  .000000000000D+00
S36 2022  9 26 22 54 24  .000000000000D+00  .000000000000D+00  .168878000000D+06
      .420036880000D+05  .000000000000D+00  .000000000000D+00  .100000000000D+01
      .367484696000D+04  .000000000000D+00  .000000000000D+00  .819200000000D+04
      .000000000000D+00  .000000000000D+00  .000000000000D+00  .000000000000D+00
S31 2022  9 26 22 54 56  .140164047480D-06  .454747350886D-11  .168954000000D+06
     -.191298448000D+05 -.550000000000D-04 -.375000000000D-07  .000000000000D+00
     -.375749595200D+05 -.184375000000D-03  .125000000000D-07  .200000000000D+01
      .108840000000D+01  .232000000000D-03  .000000000000D+00  .000000000000D+00
S36 2022  9 26 22 57  4  .000000000000D+00  .000000000000D+00  .169035000000D+06
      .420036880000D+05  .000000000000D+00  .000000000000D+00  .100000000000D+01
      .367484696000D+04  .000000000000D+00  .000000000000D+00  .819200000000D+04
      .000000000000D+00  .000000000000D+00  .000000000000D+00  .000000000000D+00
S36 2022  9 26 22 59 44  .000000000000D+00  .000000000000D+00  .169195000000D+06
      .420036880000D+05  .000000000000D+00  .000000000000D+00  .100000000000D+01
      .367484696000D+04  .000000000000D+00  .000000000000D+00  .819200000000D+04
      .000000000000D+00  .000000000000D+00  .000000000000D+00  .000000000000D+00
R09 2022 09 26 23 15 00  .788858160377D-04  .272848410532D-11  .169200000000D+06
      .926323681641D+04  .139963531494D+01  .186264514923D-08  .000000000000D+00
     -.670612353516D+04  .278461456299D+01  .931322574615D-09 -.200000000000D+01
      .228251357422D+05  .243216514587D+00 -.186264514923D-08  .000000000000D+00
R07 2022 09 26 23 15 00  .416329130530D-04  .000000000000D+00  .169200000000D+06
      .101025307617D+05  .533720970154D+00  .000000000000D+00  .000000000000D+00
     -.217976816406D+05 -.104573822021D+01  .279396772385D-08  .500000000000D+01
      .852577734375D+04 -.332295799255D+01 -.931322574615D-09  .000000000000D+00
R10 2022 09 26 23 15 00 -.863866880536D-04  .000000000000D+00  .169200000000D+06
     -.823902343750D+03  .917956352234D+00 -.931322574615D-09  .000000000000D+00
     -.194022612305D+05  .206942081451D+01  .186264514923D-08 -.700000000000D+01
      .164952587891D+05  .248623466492D+01 -.186264514923D-08  .000000000000D+00
R08 2022 09 26 23 15 00 -.673560425639D-04  .000000000000D+00  .169200000000D+06
     -.161477197266D+04  .153711509705D+01 -.931322574615D-09  .000000000000D+00
     -.149127670898D+05 -.236449527740D+01  .931322574615D-09  .600000000000D+01
      .206718964844D+05 -.159234428406D+01 -.279396772385D-08  .000000000000D+00
R18 2022 09 26 23 15 00  .443179160357D-04  .909494701773D-12  .169200000000D+06
      .121396347656D+05 -.272024154663D+01  .372529029846D-08  .000000000000D+00
      .101296538086D+05 -.373642921448D+00  .000000000000D+00 -.300000000000D+01
      .200177148438D+05  .184363079071D+01 -.186264514923D-08  .000000000000D+00
R01 2022 09 26 23 15 00  .153426080942D-04  .000000000000D+00  .169200000000D+06
     -.127170126953D+05  .168673133850D+01 -.186264514923D-08  .000000000000D+00
      .850112304688D+02 -.251467704773D+01 -.931322574615D-09  .100000000000D+01
      .221043671875D+05  .980544090271D+00 -.279396772385D-08  .000000000000D+00
R17 2022 09 26 23 15 00  .564255751669D-03  .272848410532D-11  .169200000000D+06
     -.591691308594D+04 -.311210441589D+01  .000000000000D+00  .000000000000D+00
      .987272314453D+04 -.216610908508D+00 -.931322574615D-09  .400000000000D+01
      .227657568359D+05 -.719653129578D+00 -.279396772385D-08  .000000000000D+00
R06 2022 09 26 23 15 00 -.719390809536D-04 -.181898940355D-11  .169200000000D+06
      .163443579102D+05 -.760228157043D+00  .931322574615D-09  .000000000000D+00
     -.175418295898D+05  .922173500061D+00  .279396772385D-08 -.400000000000D+01
     -.868705517578D+04 -.330105972290D+01  .931322574615D-09  .000000000000D+00
R11 2022 09 26 23 15 00  .262688845396D-04 -.909494701773D-12  .169200000000D+06
     -.114186679688D+05 -.159081459045D+00 -.465661287308D-08  .000000000000D+00
     -.228186342773D+05  .585479736328D-01  .931322574615D-09  .000000000000D+00
     -.120263671875D+03  .357117176056D+01  .000000000000D+00  .000000000000D+00
C26 2022 09 26 23 00 00 -.131890410557D-04 -.529531973825D-11  .000000000000D+00
      .100000000000D+01  .123796875000D+03  .415517307964D-08  .552186233687D+00
      .619003549218D-05  .775069580413D-03  .904593616724D-05  .528262844276D+04
      .169200000000D+06  .172294676304D-07 -.238364204446D+01  .116415321827D-07
      .948443319408D+00  .170093750000D+03  .360705459756D+00 -.704779356889D-08
      .438232539859D-09  .000000000000D+00  .873000000000D+03  .000000000000D+00
      .200000000000D+01  .000000000000D+00 -.460000000000D-08 -.460000000000D-08
      .169200000000D+06  .100000000000D+01
C14 2022 09 26 23 00 00  .679721473716D-03  .263060684347D-10  .000000000000D+00
      .200000000000D+01 -.218125000000D+02  .420374653149D-08  .210405008035D+01
     -.119861215353D-05  .107201701030D-02  .265846028924D-05  .528261744308D+04
      .169200000000D+06 -.139698386192D-07  .182369806153D+01  .931322574615D-09
      .967538149802D+00  .308390625000D+03 -.268260042679D+00 -.721387191529D-08
     -.778603860547D-10  .000000000000D+00  .873000000000D+03  .000000000000D+00
      .200000000000D+01  .000000000000D+00  .740000000000D-08  .160000000000D-08
      .169200000000D+06  .100000000000D+01
